{"type": "FeatureCollection", "features": [ {"type": "Feature", "properties": {"norad_id": 54234, "name": "NOAA 21 (JPSS-2)", "group": "weather", "lat": 2.6821179147797984, "lon": -79.86681282031921, "alt_km": 828.2284430793334, "timestamp": "2025-12-10T04:57:29.249664+00:00", "meta": {"OBJECT_NAME": "NOAA 21 (JPSS-2)", "OBJECT_ID": "2022-150A", "EPOCH": "2025-12-09T18:47:43.513728", "MEAN_MOTION": 14.19523057, "ECCENTRICITY": 0.000233, "INCLINATION": 98.7458, "RA_OF_ASC_NODE": 280.1283, "ARG_OF_PERICENTER": 43.7023, "MEAN_ANOMALY": 316.4337, "EPHEMERIS_TYPE": 0, "CLASSIFICATION_TYPE": "U", "NORAD_CAT_ID": 54234, "ELEMENT_SET_NO": 999, "REV_AT_EPOCH": 15967, "BSTAR": 0.00011904, "MEAN_MOTION_DOT": 2.07e-06, "MEAN_MOTION_DDOT": 0}, "tle": {"line1": "1 54234U 22150A   25343.78314252  .00000207  00000+0  11904-3 0  9993", "line2": "2 54234  98.7458 280.1283 0002330  43.7023 316.4337 14.19523057159674"}}, "geometry": {"type": "Point", "coordinates": [-79.86681282031921, 2.6821179147797984]}}, {"type": "Feature", "properties": {"norad_id": 54743, "name": "METEOSAT-12 (MTG-I1)", "group": "weather", "lat": 0.6184169550511507, "lon": 153.33281790789314, "alt_km": 35786.24148076662, "timestamp": "2025-12-10T04:57:29.249676+00:00", "meta": {"OBJECT_NAME": "METEOSAT-12 (MTG-I1)", "OBJECT_ID": "2022-170C", "EPOCH": "2025-12-09T06:50:38.880672", "MEAN_MOTION": 1.00275177, "ECCENTRICITY": 0.00014445, "INCLINATION": 0.7267, "RA_OF_ASC_NODE": 31.0604, "ARG_OF_PERICENTER": 223.8448, "MEAN_ANOMALY": 285.8144, "EPHEMERIS_TYPE": 0, "CLASSIFICATION_TYPE": "U", "NORAD_CAT_ID": 54743, "ELEMENT_SET_NO": 999, "REV_AT_EPOCH": 1107, "BSTAR": 0, "MEAN_MOTION_DOT": -4e-08, "MEAN_MOTION_DDOT": 0}, "tle": {"line1": "1 54743U 22170C   25343.28517223 -.00000004  00000+0  00000+0 0  9995", "line2": "2 54743   0.7267  31.0604 0001444 223.8448 285.8144  1.00275177 11076"}}, "geometry": {"type": "Point", "coordinates": [153.33281790789314, 0.6184169550511507]}}, {"type": "Feature", "properties": {"norad_id": 55973, "name": "TIANMU-1 03", "group": "weather", "lat": -80.2994241159302, "lon": -83.7339705163549, "alt_km": 454.04456624006525, "timestamp": "2025-12-10T04:57:29.249688+00:00", "meta": {"OBJECT_NAME": "TIANMU-1 03", "OBJECT_ID": "2023-039A", "EPOCH": "2025-12-09T18:27:52.644384", "MEAN_MOTION": 15.40785853, "ECCENTRICITY": 0.00045, "INCLINATION": 97.5112, "RA_OF_ASC_NODE": 146.3383, "ARG_OF_PERICENTER": 69.2402, "MEAN_ANOMALY": 290.9326, "EPHEMERIS_TYPE": 0, "CLASSIFICATION_TYPE": "U", "NORAD_CAT_ID": 55973, "ELEMENT_SET_NO": 999, "REV_AT_EPOCH": 15160, "BSTAR": 0.0005293, "MEAN_MOTION_DOT": 0.00021625, "MEAN_MOTION_DDOT": 0}, "tle": {"line1": "1 55973U 23039A   25343.76935931  .00021625  00000+0  52930-3 0  9993", "line2": "2 55973  97.5112 146.3383 0004500  69.2402 290.9326 15.40785853151606"}}, "geometry": {"type": "Point", "coordinates": [-83.7339705163549, -80.2994241159302]}}, {"type": "Feature", "properties": {"norad_id": 55974, "name": "TIANMU-1 04", "group": "weather", "lat": 14.46791748500395, "lon": 144.0304553116693, "alt_km": 441.44693296673813, "timestamp": "2025-12-10T04:57:29.249698+00:00", "meta": {"OBJECT_NAME": "TIANMU-1 04", "OBJECT_ID": "2023-039B", "EPOCH": "2025-12-09T21:06:12.523968", "MEAN_MOTION": 15.41125771, "ECCENTRICITY": 0.0005183, "INCLINATION": 97.5044, "RA_OF_ASC_NODE": 145.6435, "ARG_OF_PERICENTER": 64.4878, "MEAN_ANOMALY": 295.6904, "EPHEMERIS_TYPE": 0, "CLASSIFICATION_TYPE": "U", "NORAD_CAT_ID": 55974, "ELEMENT_SET_NO": 999, "REV_AT_EPOCH": 15162, "BSTAR": 0.00054722, "MEAN_MOTION_DOT": 0.00022618, "MEAN_MOTION_DDOT": 0}, "tle": {"line1": "1 55974U 23039B   25343.87931162  .00022618  00000+0  54722-3 0  9992", "line2": "2 55974  97.5044 145.6435 0005183  64.4878 295.6904 15.41125771151627"}}, "geometry": {"type": "Point", "coordinates": [144.0304553116693, 14.46791748500395]}}, {"type": "Feature", "properties": {"norad_id": 55975, "name": "TIANMU-1 05", "group": "weather", "lat": 49.41410450526939, "lon": 137.61449390685496, "alt_km": 436.96182230679915, "timestamp": "2025-12-10T04:57:29.249709+00:00", "meta": {"OBJECT_NAME": "TIANMU-1 05", "OBJECT_ID": "2023-039C", "EPOCH": "2025-12-09T19:23:23.400672", "MEAN_MOTION": 15.40746227, "ECCENTRICITY": 0.0004372, "INCLINATION": 97.5091, "RA_OF_ASC_NODE": 146.0624, "ARG_OF_PERICENTER": 85.7688, "MEAN_ANOMALY": 274.4057, "EPHEMERIS_TYPE": 0, "CLASSIFICATION_TYPE": "U", "NORAD_CAT_ID": 55975, "ELEMENT_SET_NO": 999, "REV_AT_EPOCH": 15159, "BSTAR": 0.00054774, "MEAN_MOTION_DOT": 0.00022354, "MEAN_MOTION_DDOT": 0}, "tle": {"line1": "1 55975U 23039C   25343.80790973  .00022354  00000+0  54774-3 0  9993", "line2": "2 55975  97.5091 146.0624 0004372  85.7688 274.4057 15.40746227151593"}}, "geometry": {"type": "Point", "coordinates": [137.61449390685496, 49.41410450526939]}}, {"type": "Feature", "properties": {"norad_id": 55976, "name": "TIANMU-1 06", "group": "weather", "lat": 2.02962307915726, "lon": 146.66702398491967, "alt_km": 444.7600552360227, "timestamp": "2025-12-10T04:57:29.249719+00:00", "meta": {"OBJECT_NAME": "TIANMU-1 06", "OBJECT_ID": "2023-039D", "EPOCH": "2025-12-09T21:09:28.785888", "MEAN_MOTION": 15.4117804, "ECCENTRICITY": 0.0004711, "INCLINATION": 97.5101, "RA_OF_ASC_NODE": 146.6008, "ARG_OF_PERICENTER": 81.2484, "MEAN_ANOMALY": 278.9296, "EPHEMERIS_TYPE": 0, "CLASSIFICATION_TYPE": "U", "NORAD_CAT_ID": 55976, "ELEMENT_SET_NO": 999, "REV_AT_EPOCH": 15162, "BSTAR": 0.00054222, "MEAN_MOTION_DOT": 0.00022447, "MEAN_MOTION_DDOT": 0}, "tle": {"line1": "1 55976U 23039D   25343.88158317  .00022447  00000+0  54222-3 0  9993", "line2": "2 55976  97.5101 146.6008 0004711  81.2484 278.9296 15.41178040151621"}}, "geometry": {"type": "Point", "coordinates": [146.66702398491967, 2.02962307915726]}}, {"type": "Feature", "properties": {"norad_id": 56232, "name": "FENGYUN 3G", "group": "weather", "lat": -36.30860333350725, "lon": -157.58490926812595, "alt_km": 416.9082680493366, "timestamp": "2025-12-10T04:57:29.249732+00:00", "meta": {"OBJECT_NAME": "FENGYUN 3G", "OBJECT_ID": "2023-055A", "EPOCH": "2025-12-09T19:54:46.304640", "MEAN_MOTION": 15.53371996, "ECCENTRICITY": 0.0009301, "INCLINATION": 49.9932, "RA_OF_ASC_NODE": 242.4697, "ARG_OF_PERICENTER": 134.6935, "MEAN_ANOMALY": 225.4791, "EPHEMERIS_TYPE": 0, "CLASSIFICATION_TYPE": "U", "NORAD_CAT_ID": 56232, "ELEMENT_SET_NO": 999, "REV_AT_EPOCH": 15057, "BSTAR": 0.00064589, "MEAN_MOTION_DOT": 0.00041469, "MEAN_MOTION_DDOT": 0}, "tle": {"line1": "1 56232U 23055A   25343.82970260  .00041469  00000+0  64589-3 0  9992", "line2": "2 56232  49.9932 242.4697 0009301 134.6935 225.4791 15.53371996150571"}}, "geometry": {"type": "Point", "coordinates": [-157.58490926812595, -36.30860333350725]}}, {"type": "Feature", "properties": {"norad_id": 57166, "name": "METEOR-M2 3", "group": "weather", "lat": -47.77123204932685, "lon": -151.85122831435265, "alt_km": 821.0264609690194, "timestamp": "2025-12-10T04:57:29.249744+00:00", "meta": {"OBJECT_NAME": "METEOR-M2 3", "OBJECT_ID": "2023-091A", "EPOCH": "2025-12-09T21:08:36.204576", "MEAN_MOTION": 14.24025657, "ECCENTRICITY": 0.0004075, "INCLINATION": 98.6382, "RA_OF_ASC_NODE": 37.4702, "ARG_OF_PERICENTER": 16.7802, "MEAN_ANOMALY": 343.3511, "EPHEMERIS_TYPE": 0, "CLASSIFICATION_TYPE": "U", "NORAD_CAT_ID": 57166, "ELEMENT_SET_NO": 999, "REV_AT_EPOCH": 12757, "BSTAR": 4.4503e-05, "MEAN_MOTION_DOT": 5.9e-07, "MEAN_MOTION_DDOT": 0}, "tle": {"line1": "1 57166U 23091A   25343.88097459  .00000059  00000+0  44503-4 0  9990", "line2": "2 57166  98.6382  37.4702 0004075  16.7802 343.3511 14.24025657127574"}}, "geometry": {"type": "Point", "coordinates": [-151.85122831435265, -47.77123204932685]}}, {"type": "Feature", "properties": {"norad_id": 57399, "name": "TIANMU-1 07", "group": "weather", "lat": -8.65684359417216, "lon": -147.00442316348168, "alt_km": 486.6538382047511, "timestamp": "2025-12-10T04:57:29.249755+00:00", "meta": {"OBJECT_NAME": "TIANMU-1 07", "OBJECT_ID": "2023-101A", "EPOCH": "2025-12-09T20:16:38.629056", "MEAN_MOTION": 15.28005317, "ECCENTRICITY": 0.0005641, "INCLINATION": 97.2877, "RA_OF_ASC_NODE": 33.7583, "ARG_OF_PERICENTER": 88.7609, "MEAN_ANOMALY": 271.4277, "EPHEMERIS_TYPE": 0, "CLASSIFICATION_TYPE": "U", "NORAD_CAT_ID": 57399, "ELEMENT_SET_NO": 999, "REV_AT_EPOCH": 13271, "BSTAR": 0.00042294, "MEAN_MOTION_DOT": 0.00011493, "MEAN_MOTION_DDOT": 0}, "tle": {"line1": "1 57399U 23101A   25343.84489154  .00011493  00000+0  42294-3 0  9991", "line2": "2 57399  97.2877  33.7583 0005641  88.7609 271.4277 15.28005317132714"}}, "geometry": {"type": "Point", "coordinates": [-147.00442316348168, -8.65684359417216]}}, {"type": "Feature", "properties": {"norad_id": 57400, "name": "TIANMU-1 08", "group": "weather", "lat": 10.133388102187807, "lon": 32.600059803516615, "alt_km": 482.60443917228895, "timestamp": "2025-12-10T04:57:29.249765+00:00", "meta": {"OBJECT_NAME": "TIANMU-1 08", "OBJECT_ID": "2023-101B", "EPOCH": "2025-12-09T21:03:18.141120", "MEAN_MOTION": 15.27990194, "ECCENTRICITY": 0.0007562, "INCLINATION": 97.2865, "RA_OF_ASC_NODE": 33.5885, "ARG_OF_PERICENTER": 91.7486, "MEAN_ANOMALY": 268.462, "EPHEMERIS_TYPE": 0, "CLASSIFICATION_TYPE": "U", "NORAD_CAT_ID": 57400, "ELEMENT_SET_NO": 999, "REV_AT_EPOCH": 13271, "BSTAR": 0.00042432, "MEAN_MOTION_DOT": 0.0001153, "MEAN_MOTION_DDOT": 0}, "tle": {"line1": "1 57400U 23101B   25343.87729330  .00011530  00000+0  42432-3 0  9996", "line2": "2 57400  97.2865  33.5885 0007562  91.7486 268.4620 15.27990194132711"}}, "geometry": {"type": "Point", "coordinates": [32.600059803516615, 10.133388102187807]}}]}